NORAD_CAT_ID,OBJECT_NAME,OBJECT_TYPE,EPOCH,MEAN_MOTION,ECCENTRICITY,INCLINATION,RA_OF_ASC_NODE,ARG_OF_PERICENTER,MEAN_ANOMALY,BSTAR,MEAN_MOTION_DOT,MEAN_MOTION_DDOT,TLE_LINE0,TLE_LINE1,TLE_LINE2,SEMIMAJOR_AXIS,PERIOD,APOGEE,PERIGEE,DECAYED
55771.0,STARLINK-5591,PAYLOAD,2024-07-21 15:46:20,14.98331177,0.0003028,70.0002,287.2488,271.8427,88.2386,-8.7122e-05,-1.132e-05,0.0,0 STARLINK-5591,1 55771U 23028AG  24203.65717836 -.00001132  00000-0 -87122-4 0  9997,2 55771  70.0002 287.2488 0003028 271.8427  88.2386 14.98331177 77259,6950.189,96.107,574.159,569.95,0.0
55771.0,STARLINK-5591,PAYLOAD,2024-07-22 04:35:25,14.98318235,0.0002624,70.0008,285.9028,268.8147,91.2712,-8.2627e-05,-1.078e-05,0.0,0 STARLINK-5591,1 55771U 23028AG  24204.19126834 -.00001078  00000-0 -82627-4 0  9993,2 55771  70.0008 285.9028 0002624 268.8147  91.2712 14.98318235 77332,6950.229,96.108,573.918,570.271,0.0
55771.0,STARLINK-5591,PAYLOAD,2024-07-22 09:23:50,14.98316035,0.0002592,70.0006,285.3976,270.2808,89.8054,-0.00010404,-1.334e-05,0.0,0 STARLINK-5591,1 55771U 23028AG  24204.39155183 -.00001334  00000-0 -10404-3 0  9992,2 55771  70.0006 285.3976 0002592 270.2808  89.8054 14.98316035 77362,6950.236,96.108,573.903,570.3,0.0
55771.0,STARLINK-5591,PAYLOAD,2024-07-23 04:37:25,14.98330331,0.0002892,70.0012,283.378,269.7761,90.3066,-6.0305e-05,-8.12e-06,0.0,0 STARLINK-5591,1 55771U 23028AG  24205.19266018 -.00000812  00000-0 -60305-4 0  9997,2 55771  70.0012 283.3780 0002892 269.7761  90.3066 14.98330331 77482,6950.192,96.107,574.067,570.047,0.0
55771.0,STARLINK-5591,PAYLOAD,2024-07-23 09:25:49,14.9834191,0.0002587,70.0009,282.8738,269.4309,90.6554,-0.00015864,-1.986e-05,0.0,0 STARLINK-5591,1 55771U 23028AG  24205.39293497 -.00001986  00000-0 -15864-3 0  9992,2 55771  70.0009 282.8738 0002587 269.4309  90.6554 14.98341910 77515,6950.156,96.106,573.819,570.223,0.0
55771.0,STARLINK-5591,PAYLOAD,2024-07-24 04:39:27,14.98322516,0.0002677,69.9999,280.8531,266.5976,93.4877,0.00022909,2.641e-05,0.0,0 STARLINK-5591,1 55771U 23028AG  24206.19406405  .00002641  00000-0  22909-3 0  9991,2 55771  69.9999 280.8531 0002677 266.5976  93.4877 14.98322516 77630,6950.216,96.107,573.942,570.22,0.0
55771.0,STARLINK-5591,PAYLOAD,2024-07-24 09:27:51,14.98321028,0.0003386,69.9988,280.3476,277.6528,82.4246,0.0002154,2.477e-05,0.0,0 STARLINK-5591,1 55771U 23028AG  24206.39434847  .00002477  00000-0  21540-3 0  9991,2 55771  69.9988 280.3476 0003386 277.6528  82.4246 14.98321028 77663,6950.221,96.108,574.439,569.732,0.0
55771.0,STARLINK-5591,PAYLOAD,2024-07-25 04:41:30,14.98309862,0.0003076,69.9995,278.3285,268.1037,91.9769,-0.00014967,-1.877e-05,0.0,0 STARLINK-5591,1 55771U 23028AG  24207.19549148 -.00001877  00000-0 -14967-3 0  9991,2 55771  69.9995 278.3285 0003076 268.1037  91.9769 14.98309862 77782,6950.255,96.108,574.258,569.982,0.0
55771.0,STARLINK-5591,PAYLOAD,2024-07-25 06:17:39,14.9829055,0.0002913,69.999,278.1598,270.4155,89.667,-0.0003732,-4.538e-05,0.0,0 STARLINK-5591,1 55771U 23028AG  24207.26226813 -.00004538  00000-0 -37320-3 0  9995,2 55771  69.9990 278.1598 0002913 270.4155  89.6670 14.98290550 77797,6950.315,96.11,574.205,570.155,0.0
55771.0,STARLINK-5591,PAYLOAD,2024-07-25 09:29:53,14.98327335,0.00038,69.9985,277.8233,282.4895,77.5838,3.3421e-05,3.06e-06,0.0,0 STARLINK-5591,1 55771U 23028AG  24207.39575930  .00000306  00000-0  33421-4 0  9992,2 55771  69.9985 277.8233 0003800 282.4895  77.5838 14.98327335 77810,6950.201,96.107,574.707,569.425,0.0
55771.0,STARLINK-5591,PAYLOAD,2024-07-25 14:18:17,14.98327444,0.0002993,69.9995,277.3186,266.6304,93.4512,4.1041e-05,3.97e-06,0.0,0 STARLINK-5591,1 55771U 23028AG  24207.59603889  .00000397  00000-0  41041-4 0  9996,2 55771  69.9995 277.3186 0002993 266.6304  93.4512 14.98327444 77844,6950.201,96.107,574.146,569.986,0.0
55771.0,STARLINK-5591,PAYLOAD,2024-07-26 04:43:29,14.98331388,0.0003719,69.9978,275.8021,276.8807,83.1929,0.00018395,2.103e-05,0.0,0 STARLINK-5591,1 55771U 23028AG  24208.19687139  .00002103  00000-0  18395-3 0  9995,2 55771  69.9978 275.8021 0003719 276.8807  83.1929 14.98331388 77934,6950.189,96.107,574.638,569.469,0.0
55771.0,STARLINK-5591,PAYLOAD,2024-07-26 09:31:53,14.98335041,0.0003736,69.9979,275.2971,278.296,81.7775,0.00024907,2.88e-05,0.0,0 STARLINK-5591,1 55771U 23028AG  24208.39714801  .00002880  00000-0  24907-3 0  9992,2 55771  69.9979 275.2971 0003736 278.2960  81.7775 14.98335041 77964,6950.177,96.107,574.639,569.446,0.0
55771.0,STARLINK-5591,PAYLOAD,2024-07-26 11:08:01,14.9833942,0.0003276,69.9989,275.1298,269.6327,90.4456,0.00034563,4.034e-05,0.0,0 STARLINK-5591,1 55771U 23028AG  24208.46390251  .00004034  00000-0  34563-3 0  9991,2 55771  69.9989 275.1298 0003276 269.6327  90.4456 14.98339420 77975,6950.164,96.106,574.306,569.752,0.0
55771.0,STARLINK-5591,PAYLOAD,2024-07-27 04:45:30,14.98327142,0.0003553,69.9982,273.2772,272.7522,87.3231,0.00047622,5.593e-05,0.0,0 STARLINK-5591,1 55771U 23028AG  24209.19826501  .00005593  00000-0  47622-3 0  9995,2 55771  69.9982 273.2772 0003553 272.7522  87.3231 14.98327142 78081,6950.202,96.107,574.536,569.597,0.0
55771.0,STARLINK-5591,PAYLOAD,2024-07-27 06:21:38,14.98321219,0.0003096,69.9981,273.1087,269.7759,90.3045,0.000558,6.57e-05,0.0,0 STARLINK-5591,1 55771U 23028AG  24209.26502681  .00006570  00000-0  55800-3 0  9996,2 55771  69.9981 273.1087 0003096 269.7759  90.3045 14.98321219 78095,6950.22,96.108,574.237,569.933,0.0
55771.0,STARLINK-5591,PAYLOAD,2024-07-27 09:33:54,14.98343219,0.0003486,69.9984,272.7731,270.4897,89.5863,7.3524e-05,7.85e-06,0.0,0 STARLINK-5591,1 55771U 23028AG  24209.39854501  .00000785  00000-0  73524-4 0  9997,2 55771  69.9984 272.7731 0003486 270.4897  89.5863 14.98343219 78119,6950.152,96.106,574.44,569.594,0.0
55771.0,STARLINK-5591,PAYLOAD,2024-07-28 04:47:31,14.98343172,0.0003173,69.9986,270.7548,267.392,92.6875,-0.00010903,-1.394e-05,0.0,0 STARLINK-5591,1 55771U 23028AG  24210.19966563 -.00001394  00000-0 -10903-3 0  9999,2 55771  69.9986 270.7548 0003173 267.3920  92.6875 14.98343172 78239,6950.152,96.106,574.222,569.812,0.0
55771.0,STARLINK-5591,PAYLOAD,2024-07-28 14:24:19,14.98343727,0.0003091,69.9987,269.7439,268.2237,91.8568,-9.6664e-05,-1.247e-05,0.0,0 STARLINK-5591,1 55771U 23028AG  24210.60022096 -.00001247  00000-0 -96664-4 0  9995,2 55771  69.9987 269.7439 0003091 268.2237  91.8568 14.98343727 78299,6950.15,96.106,574.164,569.867,0.0
55771.0,STARLINK-5591,PAYLOAD,2024-07-29 04:49:31,14.9833114,0.0002932,69.9991,268.2292,267.9725,92.1099,-8.1407e-06,-1.9e-06,0.0,0 STARLINK-5591,1 55771U 23028AG  24211.20106367 -.00000190  00000-0 -81407-5 0  9992,2 55771  69.9991 268.2292 0002932 267.9725  92.1099 14.98331140 78385,6950.189,96.107,574.092,570.017,0.0
55771.0,STARLINK-5591,PAYLOAD,2024-07-29 09:37:56,14.98331362,0.0002921,69.9992,267.7244,267.6762,92.4063,-5.1448e-06,-1.54e-06,0.0,0 STARLINK-5591,1 55771U 23028AG  24211.40134320 -.00000154  00000-0 -51448-5 0  9996,2 55771  69.9992 267.7244 0002921 267.6762  92.4063 14.98331362 78417,6950.189,96.107,574.084,570.024,0.0
55771.0,STARLINK-5591,PAYLOAD,2024-07-29 20:50:52,14.98328935,0.0002905,69.9991,266.546,268.0492,92.0334,-2.4541e-06,-1.22e-06,0.0,0 STARLINK-5591,1 55771U 23028AG  24211.86866410 -.00000122  00000-0 -24541-5 0  9997,2 55771  69.9991 266.5460 0002905 268.0492  92.0334 14.98328935 78486,6950.196,96.107,574.08,570.042,0.0
55771.0,STARLINK-5591,PAYLOAD,2024-07-30 04:51:32,14.98330615,0.0002958,69.9988,265.7041,268.4992,91.5828,1.0895e-05,3.7e-07,0.0,0 STARLINK-5591,1 55771U 23028AG  24212.20246263  .00000037  00000-0  10895-4 0  9993,2 55771  69.9988 265.7041 0002958 268.4992  91.5828 14.98330615 78531,6950.191,96.107,574.112,570.0,0.0
55771.0,STARLINK-5591,PAYLOAD,2024-07-30 14:28:20,14.98333005,0.0002967,69.9988,264.6939,270.0223,90.0596,3.7011e-05,3.49e-06,0.0,0 STARLINK-5591,1 55771U 23028AG  24212.60302030  .00000349  00000-0  37011-4 0  9997,2 55771  69.9988 264.6939 0002967 270.0223  90.0596 14.98333005 78599,6950.184,96.107,574.111,569.986,0.0
55771.0,STARLINK-5591,PAYLOAD,2024-07-30 20:52:53,14.98333672,0.0002966,69.9988,264.0205,270.0274,90.0545,5.7115e-05,5.89e-06,0.0,0 STARLINK-5591,1 55771U 23028AG  24212.87005900  .00000589  00000-0  57115-4 0  9995,2 55771  69.9988 264.0205 0002966 270.0274  90.0545 14.98333672 78633,6950.182,96.107,574.108,569.985,0.0
55771.0,STARLINK-5591,PAYLOAD,2024-07-31 04:53:33,14.98336569,0.0003041,69.9985,263.1784,269.4559,90.6251,9.1912e-05,1.004e-05,0.0,0 STARLINK-5591,1 55771U 23028AG  24213.20385536  .00001004  00000-0  91912-4 0  9995,2 55771  69.9985 263.1784 0003041 269.4559  90.6251 14.98336569 78688,6950.173,96.107,574.151,569.924,0.0
55771.0,STARLINK-5591,PAYLOAD,2024-07-31 12:54:13,14.98336994,0.0003046,69.9985,262.3367,269.4734,90.6076,9.0829e-05,9.91e-06,0.0,0 STARLINK-5591,1 55771U 23028AG  24213.53765386  .00000991  00000-0  90829-4 0  9996,2 55771  69.9985 262.3367 0003046 269.4734  90.6076 14.98336994 78739,6950.171,96.107,574.153,569.919,0.0
55771.0,STARLINK-5591,PAYLOAD,2024-07-31 20:54:53,14.98334584,0.0003157,69.9982,261.4943,272.544,87.5358,4.5112e-05,4.45e-06,0.0,0 STARLINK-5591,1 55771U 23028AG  24213.87145530  .00000445  00000-0  45112-4 0  9995,2 55771  69.9982 261.4943 0003157 272.5440  87.5358 14.98334584 78784,6950.179,96.107,574.238,569.85,0.0
55771.0,STARLINK-5591,PAYLOAD,2024-08-01 04:55:34,14.98329975,0.0003044,69.9985,260.6533,269.6274,90.4536,4.615e-05,4.58e-06,0.0,0 STARLINK-5591,1 55771U 23028AG  24214.20525827  .00000458  00000-0  46150-4 0  9991,2 55771  69.9985 260.6533 0003044 269.6274  90.4536 14.98329975 78835,6950.193,96.107,574.174,569.942,0.0
55771.0,STARLINK-5591,PAYLOAD,2024-08-01 12:56:14,14.98332769,0.0003058,69.9983,259.8114,269.9694,90.1115,2.9759e-05,2.62e-06,0.0,0 STARLINK-5591,1 55771U 23028AG  24214.53905667  .00000262  00000-0  29759-4 0  9990,2 55771  69.9983 259.8114 0003058 269.9694  90.1115 14.98332769 78882,6950.184,96.107,574.175,569.924,0.0
